{"type": "FeatureCollection", "features": [ {"type": "Feature", "properties": {"norad_id": 34001, "name": "COSMOS 2251 DEB", "group": "cosmos-2251-debris", "lat": -55.468712082350855, "lon": 100.79131698329623, "alt_km": 776.1346251443456, "timestamp": "2025-12-26T12:57:39.665483+00:00", "meta": {"OBJECT_NAME": "COSMOS 2251 DEB", "OBJECT_ID": "1993-036GL", "EPOCH": "2025-12-26T02:24:35.131104", "MEAN_MOTION": 14.37113172, "ECCENTRICITY": 0.00205, "INCLINATION": 74.0384, "RA_OF_ASC_NODE": 257.0206, "ARG_OF_PERICENTER": 335.395, "MEAN_ANOMALY": 150.1562, "EPHEMERIS_TYPE": 0, "CLASSIFICATION_TYPE": "U", "NORAD_CAT_ID": 34001, "ELEMENT_SET_NO": 999, "REV_AT_EPOCH": 88338, "BSTAR": 0.00016242513, "MEAN_MOTION_DOT": 4.57e-06, "MEAN_MOTION_DDOT": 0}, "tle": {"line1": "1 34001U 93036GL  25360.10040661  .00000457  00000+0  16243-3 0  9997", "line2": "2 34001  74.0384 257.0206 0020500 335.3950 150.1562 14.37113172883383"}}, "geometry": {"type": "Point", "coordinates": [100.79131698329623, -55.468712082350855]}}, {"type": "Feature", "properties": {"norad_id": 34003, "name": "COSMOS 2251 DEB", "group": "cosmos-2251-debris", "lat": 19.30694718457017, "lon": -92.34397224059921, "alt_km": 749.4642376295678, "timestamp": "2025-12-26T12:57:39.665494+00:00", "meta": {"OBJECT_NAME": "COSMOS 2251 DEB", "OBJECT_ID": "1993-036GN", "EPOCH": "2025-12-25T19:31:29.334144", "MEAN_MOTION": 13.84221361, "ECCENTRICITY": 0.02753646, "INCLINATION": 74.0775, "RA_OF_ASC_NODE": 263.1391, "ARG_OF_PERICENTER": 12.2095, "MEAN_ANOMALY": 348.5523, "EPHEMERIS_TYPE": 0, "CLASSIFICATION_TYPE": "U", "NORAD_CAT_ID": 34003, "ELEMENT_SET_NO": 999, "REV_AT_EPOCH": 84606, "BSTAR": 0.00186549, "MEAN_MOTION_DOT": 2.77e-05, "MEAN_MOTION_DDOT": 0}, "tle": {"line1": "1 34003U 93036GN  25359.81353396  .00002770  00000+0  18655-2 0  9995", "line2": "2 34003  74.0775 263.1391 0275364  12.2095 348.5523 13.84221361846068"}}, "geometry": {"type": "Point", "coordinates": [-92.34397224059921, 19.30694718457017]}}, {"type": "Feature", "properties": {"norad_id": 34004, "name": "COSMOS 2251 DEB", "group": "cosmos-2251-debris", "lat": -0.8371991176241596, "lon": -73.0082887452784, "alt_km": 719.8537106723988, "timestamp": "2025-12-26T12:57:39.665504+00:00", "meta": {"OBJECT_NAME": "COSMOS 2251 DEB", "OBJECT_ID": "1993-036GP", "EPOCH": "2025-12-26T04:40:50.973024", "MEAN_MOTION": 14.49129274, "ECCENTRICITY": 0.00334201, "INCLINATION": 74.0356, "RA_OF_ASC_NODE": 287.8781, "ARG_OF_PERICENTER": 298.3936, "MEAN_ANOMALY": 61.3856, "EPHEMERIS_TYPE": 0, "CLASSIFICATION_TYPE": "U", "NORAD_CAT_ID": 34004, "ELEMENT_SET_NO": 999, "REV_AT_EPOCH": 88225, "BSTAR": 0.0012566003, "MEAN_MOTION_DOT": 4.787e-05, "MEAN_MOTION_DDOT": 0}, "tle": {"line1": "1 34004U 93036GP  25360.19503441  .00004787  00000+0  12566-2 0  9992", "line2": "2 34004  74.0356 287.8781 0033420 298.3936  61.3856 14.49129274882258"}}, "geometry": {"type": "Point", "coordinates": [-73.0082887452784, -0.8371991176241596]}}, {"type": "Feature", "properties": {"norad_id": 34005, "name": "COSMOS 2251 DEB", "group": "cosmos-2251-debris", "lat": -16.86808132849519, "lon": 13.127032958407417, "alt_km": 766.2927035247603, "timestamp": "2025-12-26T12:57:39.665515+00:00", "meta": {"OBJECT_NAME": "COSMOS 2251 DEB", "OBJECT_ID": "1993-036GQ", "EPOCH": "2025-12-26T05:54:40.155840", "MEAN_MOTION": 14.40313608, "ECCENTRICITY": 0.00212406, "INCLINATION": 74.0432, "RA_OF_ASC_NODE": 188.6927, "ARG_OF_PERICENTER": 304.6738, "MEAN_ANOMALY": 170.5256, "EPHEMERIS_TYPE": 0, "CLASSIFICATION_TYPE": "U", "NORAD_CAT_ID": 34005, "ELEMENT_SET_NO": 999, "REV_AT_EPOCH": 88573, "BSTAR": 0.00010870872, "MEAN_MOTION_DOT": 3.19e-06, "MEAN_MOTION_DDOT": 0}, "tle": {"line1": "1 34005U 93036GQ  25360.24629810  .00000319  00000+0  10871-3 0  9993", "line2": "2 34005  74.0432 188.6927 0021240 304.6738 170.5256 14.40313608885732"}}, "geometry": {"type": "Point", "coordinates": [13.127032958407417, -16.86808132849519]}}, {"type": "Feature", "properties": {"norad_id": 34006, "name": "COSMOS 2251 DEB", "group": "cosmos-2251-debris", "lat": -49.46899899348161, "lon": 95.93916981511722, "alt_km": 587.717614692111, "timestamp": "2025-12-26T12:57:39.665525+00:00", "meta": {"OBJECT_NAME": "COSMOS 2251 DEB", "OBJECT_ID": "1993-036GR", "EPOCH": "2025-12-25T18:35:55.863168", "MEAN_MOTION": 14.95648156, "ECCENTRICITY": 0.00117121, "INCLINATION": 74.0532, "RA_OF_ASC_NODE": 117.0187, "ARG_OF_PERICENTER": 46.7358, "MEAN_ANOMALY": 103.407, "EPHEMERIS_TYPE": 0, "CLASSIFICATION_TYPE": "U", "NORAD_CAT_ID": 34006, "ELEMENT_SET_NO": 999, "REV_AT_EPOCH": 88863, "BSTAR": 0.0036326632, "MEAN_MOTION_DOT": 0.00040646, "MEAN_MOTION_DDOT": 0}, "tle": {"line1": "1 34006U 93036GR  25359.77495212  .00040646  00000+0  36327-2 0  9997", "line2": "2 34006  74.0532 117.0187 0011712  46.7358 103.4070 14.95648156888633"}}, "geometry": {"type": "Point", "coordinates": [95.93916981511722, -49.46899899348161]}}, {"type": "Feature", "properties": {"norad_id": 34007, "name": "COSMOS 2251 DEB", "group": "cosmos-2251-debris", "lat": 1.6015611502955023, "lon": 139.87013469210706, "alt_km": 678.3267682332898, "timestamp": "2025-12-26T12:57:39.665535+00:00", "meta": {"OBJECT_NAME": "COSMOS 2251 DEB", "OBJECT_ID": "1993-036GS", "EPOCH": "2025-12-26T05:35:55.099104", "MEAN_MOTION": 14.64882321, "ECCENTRICITY": 0.00442577, "INCLINATION": 74.0197, "RA_OF_ASC_NODE": 320.9195, "ARG_OF_PERICENTER": 91.4788, "MEAN_ANOMALY": 269.1451, "EPHEMERIS_TYPE": 0, "CLASSIFICATION_TYPE": "U", "NORAD_CAT_ID": 34007, "ELEMENT_SET_NO": 999, "REV_AT_EPOCH": 89277, "BSTAR": 0.00080446466, "MEAN_MOTION_DOT": 4.333e-05, "MEAN_MOTION_DDOT": 0}, "tle": {"line1": "1 34007U 93036GS  25360.23327661  .00004333  00000+0  80446-3 0  9998", "line2": "2 34007  74.0197 320.9195 0044257  91.4788 269.1451 14.64882321892772"}}, "geometry": {"type": "Point", "coordinates": [139.87013469210706, 1.6015611502955023]}}, {"type": "Feature", "properties": {"norad_id": 34008, "name": "COSMOS 2251 DEB", "group": "cosmos-2251-debris", "lat": 65.13252347844436, "lon": 87.15347568957033, "alt_km": 791.9389152950862, "timestamp": "2025-12-26T12:57:39.665545+00:00", "meta": {"OBJECT_NAME": "COSMOS 2251 DEB", "OBJECT_ID": "1993-036GT", "EPOCH": "2025-12-26T06:16:55.318368", "MEAN_MOTION": 14.33155467, "ECCENTRICITY": 0.00246706, "INCLINATION": 74.0349, "RA_OF_ASC_NODE": 305.8055, "ARG_OF_PERICENTER": 298.8937, "MEAN_ANOMALY": 175.1122, "EPHEMERIS_TYPE": 0, "CLASSIFICATION_TYPE": "U", "NORAD_CAT_ID": 34008, "ELEMENT_SET_NO": 999, "REV_AT_EPOCH": 88158, "BSTAR": 0.00013397332, "MEAN_MOTION_DOT": 3.43e-06, "MEAN_MOTION_DDOT": 0}, "tle": {"line1": "1 34008U 93036GT  25360.26175137  .00000343  00000+0  13397-3 0  9999", "line2": "2 34008  74.0349 305.8055 0024670 298.8937 175.1122 14.33155467881583"}}, "geometry": {"type": "Point", "coordinates": [87.15347568957033, 65.13252347844436]}}, {"type": "Feature", "properties": {"norad_id": 34009, "name": "COSMOS 2251 DEB", "group": "cosmos-2251-debris", "lat": 29.382150571120235, "lon": 122.44257503317377, "alt_km": 792.0118829035091, "timestamp": "2025-12-26T12:57:39.665555+00:00", "meta": {"OBJECT_NAME": "COSMOS 2251 DEB", "OBJECT_ID": "1993-036GU", "EPOCH": "2025-12-26T06:05:08.996640", "MEAN_MOTION": 14.33233203, "ECCENTRICITY": 0.00270427, "INCLINATION": 74.0378, "RA_OF_ASC_NODE": 312.2399, "ARG_OF_PERICENTER": 18.0382, "MEAN_ANOMALY": 93.4816, "EPHEMERIS_TYPE": 0, "CLASSIFICATION_TYPE": "U", "NORAD_CAT_ID": 34009, "ELEMENT_SET_NO": 999, "REV_AT_EPOCH": 88139, "BSTAR": 0.00016617174, "MEAN_MOTION_DOT": 4.33e-06, "MEAN_MOTION_DDOT": 0}, "tle": {"line1": "1 34009U 93036GU  25360.25357635  .00000433  00000+0  16617-3 0  9992", "line2": "2 34009  74.0378 312.2399 0027042  18.0382  93.4816 14.33233203881397"}}, "geometry": {"type": "Point", "coordinates": [122.44257503317377, 29.382150571120235]}}, {"type": "Feature", "properties": {"norad_id": 34010, "name": "COSMOS 2251 DEB", "group": "cosmos-2251-debris", "lat": -0.5706636924633337, "lon": -105.84069734620688, "alt_km": 503.63866543372296, "timestamp": "2025-12-26T12:57:39.665566+00:00", "meta": {"OBJECT_NAME": "COSMOS 2251 DEB", "OBJECT_ID": "1993-036GV", "EPOCH": "2025-12-26T03:29:31.387488", "MEAN_MOTION": 15.20965145, "ECCENTRICITY": 0.00048609, "INCLINATION": 73.996, "RA_OF_ASC_NODE": 255.153, "ARG_OF_PERICENTER": 56.4406, "MEAN_ANOMALY": 303.7255, "EPHEMERIS_TYPE": 0, "CLASSIFICATION_TYPE": "U", "NORAD_CAT_ID": 34010, "ELEMENT_SET_NO": 999, "REV_AT_EPOCH": 89489, "BSTAR": 0.0037296463, "MEAN_MOTION_DOT": 0.00083596, "MEAN_MOTION_DDOT": 0}, "tle": {"line1": "1 34010U 93036GV  25360.14550217  .00083596  00000+0  37296-2 0  9999", "line2": "2 34010  73.9960 255.1530 0004860  56.4406 303.7255 15.20965145894899"}}, "geometry": {"type": "Point", "coordinates": [-105.84069734620688, -0.5706636924633337]}}, {"type": "Feature", "properties": {"norad_id": 34011, "name": "COSMOS 2251 DEB", "group": "cosmos-2251-debris", "lat": -38.03887153051299, "lon": 137.49992727383864, "alt_km": 783.5012666799466, "timestamp": "2025-12-26T12:57:39.665575+00:00", "meta": {"OBJECT_NAME": "COSMOS 2251 DEB", "OBJECT_ID": "1993-036GW", "EPOCH": "2025-12-25T22:37:24.684384", "MEAN_MOTION": 14.41831261, "ECCENTRICITY": 0.0036363, "INCLINATION": 74.0146, "RA_OF_ASC_NODE": 305.6479, "ARG_OF_PERICENTER": 25.6657, "MEAN_ANOMALY": 334.6293, "EPHEMERIS_TYPE": 0, "CLASSIFICATION_TYPE": "U", "NORAD_CAT_ID": 34011, "ELEMENT_SET_NO": 999, "REV_AT_EPOCH": 88106, "BSTAR": 0.000796, "MEAN_MOTION_DOT": 2.597e-05, "MEAN_MOTION_DDOT": 0}, "tle": {"line1": "1 34011U 93036GW  25359.94264681  .00002597  00000+0  79600-3 0  9991", "line2": "2 34011  74.0146 305.6479 0036363  25.6657 334.6293 14.41831261881063"}}, "geometry": {"type": "Point", "coordinates": [137.49992727383864, -38.03887153051299]}}]}